[{"OBJECT_NAME":"STARLINK-32363","OBJECT_ID":"2024-193T","EPOCH":"2026-03-09T10:41:14.894592","MEAN_MOTION":15.30190023,"ECCENTRICITY":0.00012755,"INCLINATION":53.1608,"RA_OF_ASC_NODE":91.8252,"ARG_OF_PERICENTER":89.8834,"MEAN_ANOMALY":270.2313,"EPHEMERIS_TYPE":0,"CLASSIFICATION_TYPE":"U","NORAD_CAT_ID":61678,"ELEMENT_SET_NO":999,"REV_AT_EPOCH":7649,"BSTAR":1.6649099e-5,"MEAN_MOTION_DOT":1.34e-6,"MEAN_MOTION_DDOT":0},{"OBJECT_NAME":"FENGYUN 1C DEB","OBJECT_ID":"1999-025ETT","EPOCH":"2026-03-07T08:30:03.670560","MEAN_MOTION":15.28888299,"ECCENTRICITY":0.00158464,"INCLINATION":99.1103,"RA_OF_ASC_NODE":112.0072,"ARG_OF_PERICENTER":201.0032,"MEAN_ANOMALY":159.0553,"EPHEMERIS_TYPE":0,"CLASSIFICATION_TYPE":"U","NORAD_CAT_ID":38726,"ELEMENT_SET_NO":999,"REV_AT_EPOCH":71135,"BSTAR":0.013792546,"MEAN_MOTION_DOT":0.00409659,"MEAN_MOTION_DDOT":0}]
